CCSDS_OMM_VERS = 2.0
CREATION_DATE  = 
ORIGINATOR     = 

OBJECT_NAME    = SL-14 R/B
OBJECT_ID      = 1986-046B
CENTER_NAME    = EARTH
REF_FRAME      = TEME
TIME_SYSTEM    = UTC
MEAN_ELEMENT_THEORY = SGP/SGP4

EPOCH          = 2025-12-24T20:08:32.653248
MEAN_MOTION    = 14.85497265
ECCENTRICITY   = .0024504
INCLINATION    = 82.4817
RA_OF_ASC_NODE = 150.8871
ARG_OF_PERICENTER = 114.0550
MEAN_ANOMALY   = 246.3234

EPHEMERIS_TYPE = 0
CLASSIFICATION_TYPE = U
NORAD_CAT_ID   = 16792
ELEMENT_SET_NO = 999
REV_AT_EPOCH   = 11529
BSTAR          = .61098E-4
MEAN_MOTION_DOT = .555E-5
MEAN_MOTION_DDOT = 0

CCSDS_OMM_VERS = 2.0
CREATION_DATE  = 
ORIGINATOR     = 

OBJECT_NAME    = SL-14 R/B
OBJECT_ID      = 1986-055B
CENTER_NAME    = EARTH
REF_FRAME      = TEME
TIME_SYSTEM    = UTC
MEAN_ELEMENT_THEORY = SGP/SGP4

EPOCH          = 2025-12-24T19:51:43.229088
MEAN_MOTION    = 14.85541695
ECCENTRICITY   = .0017997
INCLINATION    = 82.5194
RA_OF_ASC_NODE = 197.0141
ARG_OF_PERICENTER = 216.4249
MEAN_ANOMALY   = 153.9237

EPHEMERIS_TYPE = 0
CLASSIFICATION_TYPE = U
NORAD_CAT_ID   = 16882
ELEMENT_SET_NO = 999
REV_AT_EPOCH   = 10825
BSTAR          = .49973E-4
MEAN_MOTION_DOT = .457E-5
MEAN_MOTION_DDOT = 0

CCSDS_OMM_VERS = 2.0
CREATION_DATE  = 
ORIGINATOR     = 

OBJECT_NAME    = AJISAI (EGS)
OBJECT_ID      = 1986-061A
CENTER_NAME    = EARTH
REF_FRAME      = TEME
TIME_SYSTEM    = UTC
MEAN_ELEMENT_THEORY = SGP/SGP4

EPOCH          = 2025-12-24T20:37:14.658816
MEAN_MOTION    = 12.44514404
ECCENTRICITY   = .0011317
INCLINATION    = 50.0112
RA_OF_ASC_NODE = 323.4509
ARG_OF_PERICENTER = 96.3110
MEAN_ANOMALY   = 287.2779

EPHEMERIS_TYPE = 0
CLASSIFICATION_TYPE = U
NORAD_CAT_ID   = 16908
ELEMENT_SET_NO = 999
REV_AT_EPOCH   = 45868
BSTAR          = .75983E-4
MEAN_MOTION_DOT = -.87E-6
MEAN_MOTION_DDOT = 0

CCSDS_OMM_VERS = 2.0
CREATION_DATE  = 
ORIGINATOR     = 

OBJECT_NAME    = COSMOS 1812
OBJECT_ID      = 1987-003A
CENTER_NAME    = EARTH
REF_FRAME      = TEME
TIME_SYSTEM    = UTC
MEAN_ELEMENT_THEORY = SGP/SGP4

EPOCH          = 2025-12-24T20:27:25.024608
MEAN_MOTION    = 15.77996276
ECCENTRICITY   = .0006389
INCLINATION    = 82.4871
RA_OF_ASC_NODE = 278.8821
ARG_OF_PERICENTER = 68.8811
MEAN_ANOMALY   = 291.3137

EPHEMERIS_TYPE = 0
CLASSIFICATION_TYPE = U
NORAD_CAT_ID   = 17295
ELEMENT_SET_NO = 999
REV_AT_EPOCH   = 13256
BSTAR          = .6957E-3
MEAN_MOTION_DOT = .119103E-2
MEAN_MOTION_DDOT = 0

CCSDS_OMM_VERS = 2.0
CREATION_DATE  = 
ORIGINATOR     = 

OBJECT_NAME    = SL-14 R/B
OBJECT_ID      = 1987-024B
CENTER_NAME    = EARTH
REF_FRAME      = TEME
TIME_SYSTEM    = UTC
MEAN_ELEMENT_THEORY = SGP/SGP4

EPOCH          = 2025-12-24T19:58:46.818048
MEAN_MOTION    = 14.86036093
ECCENTRICITY   = .0019113
INCLINATION    = 82.5278
RA_OF_ASC_NODE = 163.0942
ARG_OF_PERICENTER = 144.9050
MEAN_ANOMALY   = 215.3430

EPHEMERIS_TYPE = 0
CLASSIFICATION_TYPE = U
NORAD_CAT_ID   = 17567
ELEMENT_SET_NO = 999
REV_AT_EPOCH   = 7701
BSTAR          = .5996E-4
MEAN_MOTION_DOT = .55E-5
MEAN_MOTION_DDOT = 0

CCSDS_OMM_VERS = 2.0
CREATION_DATE  = 
ORIGINATOR     = 

OBJECT_NAME    = COSMOS 1833
OBJECT_ID      = 1987-027A
CENTER_NAME    = EARTH
REF_FRAME      = TEME
TIME_SYSTEM    = UTC
MEAN_ELEMENT_THEORY = SGP/SGP4

EPOCH          = 2025-12-24T18:03:14.595264
MEAN_MOTION    = 14.13027852
ECCENTRICITY   = .0023061
INCLINATION    = 70.9160
RA_OF_ASC_NODE = 123.5251
ARG_OF_PERICENTER = 314.9441
MEAN_ANOMALY   = 44.9809

EPHEMERIS_TYPE = 0
CLASSIFICATION_TYPE = U
NORAD_CAT_ID   = 17589
ELEMENT_SET_NO = 999
REV_AT_EPOCH   = 99972
BSTAR          = .17763E-3
MEAN_MOTION_DOT = .284E-5
MEAN_MOTION_DDOT = 0

CCSDS_OMM_VERS = 2.0
CREATION_DATE  = 
ORIGINATOR     = 

OBJECT_NAME    = SL-16 R/B
OBJECT_ID      = 1987-027B
CENTER_NAME    = EARTH
REF_FRAME      = TEME
TIME_SYSTEM    = UTC
MEAN_ELEMENT_THEORY = SGP/SGP4

EPOCH          = 2025-12-24T15:51:28.469088
MEAN_MOTION    = 14.17156563
ECCENTRICITY   = .0007216
INCLINATION    = 71.0038
RA_OF_ASC_NODE = 74.5991
ARG_OF_PERICENTER = 247.1568
MEAN_ANOMALY   = 112.8794

EPHEMERIS_TYPE = 0
CLASSIFICATION_TYPE = U
NORAD_CAT_ID   = 17590
ELEMENT_SET_NO = 999
REV_AT_EPOCH   = 471
BSTAR          = .1221E-4
MEAN_MOTION_DOT = -.23E-6
MEAN_MOTION_DDOT = 0

CCSDS_OMM_VERS = 2.0
CREATION_DATE  = 
ORIGINATOR     = 

OBJECT_NAME    = SL-14 R/B
OBJECT_ID      = 1987-038B
CENTER_NAME    = EARTH
REF_FRAME      = TEME
TIME_SYSTEM    = UTC
MEAN_ELEMENT_THEORY = SGP/SGP4

EPOCH          = 2025-12-24T07:37:00.248736
MEAN_MOTION    = 14.85271453
ECCENTRICITY   = .00206279
INCLINATION    = 82.5009
RA_OF_ASC_NODE = 7.7951
ARG_OF_PERICENTER = 56.5498
MEAN_ANOMALY   = 303.7687

EPHEMERIS_TYPE = 0
CLASSIFICATION_TYPE = U
NORAD_CAT_ID   = 17912
ELEMENT_SET_NO = 999
REV_AT_EPOCH   = 6804
BSTAR          = .5345458E-4
MEAN_MOTION_DOT = .485E-5
MEAN_MOTION_DDOT = 0

CCSDS_OMM_VERS = 2.0
CREATION_DATE  = 
ORIGINATOR     = 

OBJECT_NAME    = COSMOS 1844
OBJECT_ID      = 1987-041A
CENTER_NAME    = EARTH
REF_FRAME      = TEME
TIME_SYSTEM    = UTC
MEAN_ELEMENT_THEORY = SGP/SGP4

EPOCH          = 2025-12-24T19:06:01.276704
MEAN_MOTION    = 14.14531130
ECCENTRICITY   = .0029609
INCLINATION    = 70.8967
RA_OF_ASC_NODE = 192.1424
ARG_OF_PERICENTER = 138.0230
MEAN_ANOMALY   = 222.3169

EPHEMERIS_TYPE = 0
CLASSIFICATION_TYPE = U
NORAD_CAT_ID   = 17973
ELEMENT_SET_NO = 999
REV_AT_EPOCH   = 99299
BSTAR          = .19386E-3
MEAN_MOTION_DOT = .325E-5
MEAN_MOTION_DDOT = 0

CCSDS_OMM_VERS = 2.0
CREATION_DATE  = 
ORIGINATOR     = 

OBJECT_NAME    = SL-14 R/B
OBJECT_ID      = 1987-055B
CENTER_NAME    = EARTH
REF_FRAME      = TEME
TIME_SYSTEM    = UTC
MEAN_ELEMENT_THEORY = SGP/SGP4

EPOCH          = 2025-12-24T15:27:21.155040
MEAN_MOTION    = 14.85532752
ECCENTRICITY   = .0019176
INCLINATION    = 82.4991
RA_OF_ASC_NODE = 59.7694
ARG_OF_PERICENTER = 260.9470
MEAN_ANOMALY   = 98.9576

EPHEMERIS_TYPE = 0
CLASSIFICATION_TYPE = U
NORAD_CAT_ID   = 18153
ELEMENT_SET_NO = 999
REV_AT_EPOCH   = 5879
BSTAR          = .5382E-4
MEAN_MOTION_DOT = .49E-5
MEAN_MOTION_DDOT = 0

CCSDS_OMM_VERS = 2.0
CREATION_DATE  = 
ORIGINATOR     = 

OBJECT_NAME    = COSMOS 1867
OBJECT_ID      = 1987-060A
CENTER_NAME    = EARTH
REF_FRAME      = TEME
TIME_SYSTEM    = UTC
MEAN_ELEMENT_THEORY = SGP/SGP4

EPOCH          = 2025-12-24T18:12:49.862016
MEAN_MOTION    = 14.31487908
ECCENTRICITY   = .0013671
INCLINATION    = 65.0090
RA_OF_ASC_NODE = 156.5437
ARG_OF_PERICENTER = 272.2694
MEAN_ANOMALY   = 87.6825

EPHEMERIS_TYPE = 0
CLASSIFICATION_TYPE = U
NORAD_CAT_ID   = 18187
ELEMENT_SET_NO = 999
REV_AT_EPOCH   = 921
BSTAR          = .21734E-4
MEAN_MOTION_DOT = -.42E-6
MEAN_MOTION_DDOT = 0

CCSDS_OMM_VERS = 2.0
CREATION_DATE  = 
ORIGINATOR     = 

OBJECT_NAME    = SL-14 R/B
OBJECT_ID      = 1988-001B
CENTER_NAME    = EARTH
REF_FRAME      = TEME
TIME_SYSTEM    = UTC
MEAN_ELEMENT_THEORY = SGP/SGP4

EPOCH          = 2025-12-24T18:27:31.989600
MEAN_MOTION    = 14.85435797
ECCENTRICITY   = .0019368
INCLINATION    = 82.5134
RA_OF_ASC_NODE = 265.8337
ARG_OF_PERICENTER = 123.2469
MEAN_ANOMALY   = 237.0606

EPHEMERIS_TYPE = 0
CLASSIFICATION_TYPE = U
NORAD_CAT_ID   = 18749
ELEMENT_SET_NO = 999
REV_AT_EPOCH   = 3090
BSTAR          = .545E-4
MEAN_MOTION_DOT = .496E-5
MEAN_MOTION_DDOT = 0

