SL-14 R/B               
1 16792U 86046B   25358.83926682  .00000555  00000+0  61098-4 0  9998
2 16792  82.4817 150.8871 0024504 114.0550 246.3234 14.85497265115291
SL-14 R/B               
1 16882U 86055B   25358.82758367  .00000457  00000+0  49973-4 0  9999
2 16882  82.5194 197.0141 0017997 216.4249 153.9237 14.85541695108254
AJISAI (EGS)            
1 16908U 86061A   25358.85919744 -.00000087  00000+0  75983-4 0  9996
2 16908  50.0112 323.4509 0011317  96.3110 287.2779 12.44514404458686
COSMOS 1812             
1 17295U 87003A   25358.85237297  .00119103  00000+0  69570-3 0  9992
2 17295  82.4871 278.8821 0006389  68.8811 291.3137 15.77996276132562
SL-14 R/B               
1 17567U 87024B   25358.83248632  .00000550  00000+0  59960-4 0  9998
2 17567  82.5278 163.0942 0019113 144.9050 215.3430 14.86036093 77016
COSMOS 1833             
1 17589U 87027A   25358.75225226  .00000284  00000+0  17763-3 0  9998
2 17589  70.9160 123.5251 0023061 314.9441  44.9809 14.13027852999725
SL-16 R/B               
1 17590U 87027B   25358.66074617 -.00000023  00000+0  12210-4 0  9991
2 17590  71.0038  74.5991 0007216 247.1568 112.8794 14.17156563  4710
SL-14 R/B               
1 17912U 87038B   25358.31736399  .00000485  00000+0  53455-4 0  9992
2 17912  82.5009   7.7951 0020627  56.5498 303.7687 14.85271453 68041
COSMOS 1844             
1 17973U 87041A   25358.79584811  .00000325  00000+0  19386-3 0  9992
2 17973  70.8967 192.1424 0029609 138.0230 222.3169 14.14531130992998
SL-14 R/B               
1 18153U 87055B   25358.64399485  .00000490  00000+0  53820-4 0  9998
2 18153  82.4991  59.7694 0019176 260.9470  98.9576 14.85532752 58790
COSMOS 1867             
1 18187U 87060A   25358.75891044 -.00000042  00000+0  21734-4 0  9994
2 18187  65.0090 156.5437 0013671 272.2694  87.6825 14.31487908  9211
SL-14 R/B               
1 18749U 88001B   25358.76912025  .00000496  00000+0  54500-4 0  9997
2 18749  82.5134 265.8337 0019368 123.2469 237.0606 14.85435797 30901
